TERRA                   
1 25994U 99068A   17346.26494629 -.00000101  00000-0 -12262-4 0  9995
2 25994  98.2145  58.7569 0000878  58.5039 301.6254 14.57119832956601
